IRNSS-1A                
1 39199U 13034A   21274.58321716  .00000109  00000-0  00000-0 0  9991
2 39199  31.8554  89.3554 0020475 178.0508   8.2014  1.00268661 30121
GPS BIIF-5  (PRN 30)    
1 39533U 14008A   21273.08834413  .00000006  00000-0  00000-0 0  9998
2 39533  53.6599 219.5038 0054493 205.5809 154.1396  2.00566889 55164
ASTRA 5B (EGNOS/PRN 123)
1 39617U 14011B   21275.12549281  .00000152  00000-0  00000+0 0  9999
2 39617   0.0086  62.3074 0003647 131.2106 254.2389  1.00268967 27638
COSMOS 2492 (754)       
1 39620U 14012A   21275.32370881 -.00000067  00000-0  00000+0 0  9990
2 39620  65.8398  11.7847 0011021 320.6631 311.7192  2.13103199 58607
IRNSS-1B                
1 39635U 14017A   21274.58321716  .00000106  00000-0  00000-0 0  9995
2 39635  29.2746 269.4117 0020880 190.2812 175.8405  1.00275415 27553
LUCH 5V (SDCM/PRN 141)  
1 39727U 14023A   21275.45263903 -.00000271  00000-0  00000+0 0  9997
2 39727   0.9083  66.3722 0002147 121.4323  81.2576  1.00275575545270
GPS BIIF-6  (PRN 06)    
1 39741U 14026A   21272.86753670 -.00000058  00000-0  00000-0 0  9997
2 39741  56.4435  38.3945 0024122 298.4279  61.3371  2.00574531 54015
COSMOS 2500 (755)       
1 40001U 14032A   21275.12606273 -.00000068  00000-0  00000+0 0  9993
2 40001  65.7795  11.6731 0008023 192.7052 147.4110  2.13102358 56817
GPS BIIF-7  (PRN 09)    
1 40105U 14045A   21274.45395709  .00000012  00000-0  00000-0 0  9995
2 40105  54.6399 157.1466 0019950 105.4748 254.8228  2.00560237 51586
GSAT0201 (PRN E18)      
1 40128U 14050A   21274.48933537 -.00000074  00000-0  00000+0 0  9994
2 40128  50.4278 342.6009 1640771 115.0650 262.8462  1.85519150 48356
GSAT0202 (PRN E14)      
1 40129U 14050B   21274.21230340 -.00000074  00000-0  00000-0 0  9999
2 40129  50.4571 341.6647 1637932 115.8638 261.9274  1.85519818 48575
IRNSS-1C                
1 40269U 14061A   21274.80422795 -.00000164  00000-0  00000-0 0  9998
2 40269   2.4560 141.9774 0020484   6.1064 235.2217  1.00274051 25445
GPS BIIF-8  (PRN 03)    
1 40294U 14068A   21274.32266424  .00000047  00000-0  00000-0 0  9994
2 40294  55.6260  98.1871 0036920  54.7216 305.6867  2.00553408 50719
COSMOS 2501 (702K)      
1 40315U 14075A   21274.79662367  .00000048  00000-0  00000+0 0  9993
2 40315  63.7477 250.2370 0018723 213.6167  40.5777  2.13101331 53211
GPS BIIF-9  (PRN 26)    
1 40534U 15013A   21273.96097561  .00000032  00000-0  00000-0 0  9999
2 40534  53.8792 275.4407 0061235  14.7913 345.4118  2.00568257 47320
GSAT0203 (PRN E26)      
1 40544U 15017A   21273.76202312 -.00000070  00000-0  00000-0 0  9997
2 40544  56.6853  28.4791 0003594 222.1478 137.8308  1.70475142 39878
GSAT0204 (PRN E22)      
1 40545U 15017B   21274.01458583 -.00000070  00000-0  00000-0 0  9990
2 40545  56.6914  28.4834 0003866 206.9537 153.0323  1.70475966  2920
IRNSS-1D                
1 40547U 15018A   21274.99958512 -.00000277  00000-0  00000+0 0  9995
2 40547  29.1079 269.4620 0018902 189.9872  23.1027  1.00269935 24009
BEIDOU 17 (C31)         
1 40549U 15019A   21275.45904106 -.00000124  00000-0  00000+0 0  9991
2 40549  52.3184 315.7543 0038373 189.4149 123.5978  1.00297994 23848
GPS BIIF-10 (PRN 08)    
1 40730U 15033A   21274.61975328 -.00000056  00000-0  00000-0 0  9995
2 40730  55.3599 337.0901 0065293   0.9820 359.0944  2.00565501 45501
BEIDOU 18 (C57)         
1 40748U 15037A   21274.78427888 -.00000088  00000-0  00000-0 0  9994
2 40748  55.9257   0.4706 0001243  40.7663 217.6175  1.86233431 42096
BEIDOU 19 (C58)         
1 40749U 15037B   21275.12190093 -.00000086  00000-0  00000+0 0  9996
2 40749  55.9293   0.4466 0003082 291.1630 329.2005  1.86232090 42091
GSAT0205 (PRN E24)      
1 40889U 15045A   21273.78209106  .00000038  00000-0  00000-0 0  9993
2 40889  55.8031 269.1333 0004164 341.1819  18.8152  1.70475081 37684
GSAT0206 (PRN E30)      
1 40890U 15045B   21274.58813825  .00000039  00000-0  00000+0 0  9993
2 40890  55.8016 269.1072 0003332 315.4518  44.5332  1.70475068 37721
BEIDOU 20 (C18)         
1 40938U 15053A   21275.06467528 -.00000082  00000-0  00000+0 0  9993
2 40938  51.9036 278.8399 0048170 196.1041  14.0234  1.00259576 22102
GPS BIIF-11 (PRN 10)    
1 41019U 15062A   21274.17169249  .00000045  00000-0  00000-0 0  9993
2 41019  55.6177  98.0307 0071173 213.3804 146.2308  2.00563437 43332
GSAT-15 (GAGAN/PRN 139) 
1 41028U 15065A   21275.09347477 -.00000261  00000-0  00000+0 0  9999
2 41028   0.0348  96.0189 0002316  78.4032 323.7866  1.00271437 21622
GSAT0209 (PRN E09)      
1 41174U 15079A   21274.17748494  .00000024  00000-0  00000+0 0  9994
2 41174  55.0816 148.5318 0003129 334.9785  25.0992  1.70472912 36030
GSAT0208 (PRN E08)      
1 41175U 15079B   21274.39715338  .00000025  00000-0  00000-0 0  9992
2 41175  55.0800 148.5247 0002461 343.1912  16.8945  1.70472921 35874
IRNSS-1E                
1 41241U 16003A   21274.42271390 -.00000277  00000-0  00000-0 0  9993
2 41241  29.4027  88.6736 0021599 175.5217  10.1996  1.00272055 20831
GPS BIIF-12 (PRN 32)    
1 41328U 16007A   21274.26368651  .00000009  00000-0  00000-0 0  9994
2 41328  54.8643 157.7608 0052625 225.4076 134.2374  2.00557574 41341
COSMOS 2514 (751)       
1 41330U 16008A   21275.02340775 -.00000068  00000-0  00000+0 0  9995
2 41330  65.5808  11.4321 0011317 205.1235 239.5801  2.13102809 43986
IRNSS-1F                
1 41384U 16015A   21275.08135146  .00000157  00000-0  00000+0 0  9990
2 41384   1.9669 178.3477 0017680 183.9448  70.6098  1.00266123 20439
BEIDOU IGSO-6 (C13)     
1 41434U 16021A   21274.58263747 -.00000115  00000-0  00000+0 0  9991
2 41434  57.7211  55.5322 0043246 210.4838  47.9145  1.00291985 20230
IRNSS-1G                
1 41469U 16027A   21274.87768797 -.00000338  00000-0  00000-0 0  9990
2 41469   1.9315 181.8784 0003412 314.3662 320.0405  1.00274548 19934
GSAT0211 (PRN E02)      
1 41549U 16030A   21275.10339170  .00000039  00000-0  00000+0 0  9995
2 41549  55.9454 268.9985 0005038 301.9977  57.9637  1.70474799 33344
GSAT0210 (PRN E01)      
1 41550U 16030B   21273.04979982  .00000037  00000-0  00000-0 0  9998
2 41550  55.9467 269.0565 0004970 278.1290  81.8267  1.70474831 33323
COSMOS 2516 (753)       
1 41554U 16032A   21275.33914000  .00000046  00000-0  00000+0 0  9997
2 41554  63.9732 250.4212 0015448 222.6810   1.8541  2.13107255 41594
BEIDOU-2 G7 (C03)       
1 41586U 16037A   21274.88438170 -.00000355  00000-0  00000-0 0  9990
2 41586   1.9247  69.1231 0007425  12.6754 357.9594  1.00268967 19555
E 117 W B (WAAS/PRN 131)
1 41589U 16038B   21275.37540727 -.00000015  00000-0  00000+0 0  9993
2 41589   0.0272  41.8995 0000494  75.4966 272.0684  1.00271826 19477
GSAT0207 (PRN E07)      
1 41859U 16069A   21273.29684885  .00000019  00000-0  00000-0 0  9994
2 41859  54.7408 148.8017 0002780 314.8124  45.2547  1.70472900 30062
GSAT0212 (PRN E03)      
1 41860U 16069B   21274.91004582  .00000028  00000-0  00000+0 0  9995
2 41860  54.7388 148.7549 0002492 359.2905   0.8050  1.70472867 30349
GSAT0213 (PRN E04)      
1 41861U 16069C   21274.10241678  .00000023  00000-0  00000-0 0  9992
2 41861  54.7409 148.7820 0001984 277.7873  82.2824  1.70473050 30190
GSAT0214 (PRN E05)      
1 41862U 16069D   21274.83610480  .00000027  00000-0  00000+0 0  9997
2 41862  54.7393 148.7566 0001210 294.2810  65.8017  1.70472936 30336
SES-15 (WAAS/PRN 133)   
1 42709U 17026A   21275.29227765  .00000056  00000-0  00000+0 0  9995
2 42709   0.0162 356.8351 0000743 197.9497 152.5398  1.00274834 16957
QZS-2 (QZSS/PRN 184)    
1 42738U 17028A   21275.32324267 -.00000145  00000-0  00000+0 0  9998
2 42738  42.2080 267.8111 0749179 270.3892  88.8724  1.00258814 15907
QZS-3 (QZSS/PRN 189)    
1 42917U 17048A   21275.31544490 -.00000350  00000-0  00000+0 0  9998
2 42917   0.0562 164.1727 0002586  40.6697  47.0334  1.00274744 15139
COSMOS 2522 (752)       
1 42939U 17055A   21275.44932755  .00000046  00000-0  00000+0 0  9990
2 42939  64.2063 250.7361 0010031 247.6578 282.3935  2.13101956 31350
QZS-4 (QZSS/PRN 185)    
1 42965U 17062A   21274.55064316 -.00000300  00000-0  00000+0 0  9991
2 42965  40.8150   5.4580 0748472 269.7233  73.1366  1.00276686 14560
BEIDOU-3 M1 (C19)       
1 43001U 17069A   21274.72921333  .00000057  00000-0  00000-0 0  9999
2 43001  55.4106 120.3661 0007926 295.3015   9.6607  1.86231786 26579
BEIDOU-3 M2 (C20)       
1 43002U 17069B   21275.20106938  .00000062  00000-0  00000+0 0  9995
2 43002  55.4101 120.3861 0006779 323.6208 341.0104  1.86231360 26574
GSAT0215 (PRN E21)      
1 43055U 17079A   21274.73970706  .00000039  00000-0  00000+0 0  9997
2 43055  55.9212 268.8449 0004371 274.5848  85.3763  1.70473960 23674
GSAT0216 (PRN E25)      
1 43056U 17079B   21273.85895540  .00000039  00000-0  00000-0 0  9993
2 43056  55.9222 268.8689 0006138 275.5224  84.4197  1.70474130 23675
GSAT0217 (PRN E27)      
1 43057U 17079C   21275.25228506  .00000039  00000-0  00000+0 0  9991
2 43057  55.9201 268.8306 0005637 285.7300  74.2175  1.70474067 23683
GSAT0218 (PRN E31)      
1 43058U 17079D   21271.36620636  .00000031  00000-0  00000-0 0  9993
2 43058  55.9221 268.9348 0006581 272.3943  87.5382  1.70474163 23647
BEIDOU-3 M3 (C27)       
1 43107U 18003A   21275.46120372 -.00000086  00000-0  00000+0 0  9993
2 43107  55.3709   1.4790 0003958  64.6994 220.2667  1.86232524 25342
BEIDOU-3 M4 (C28)       
1 43108U 18003B   21274.85442688 -.00000089  00000-0  00000+0 0  9996
2 43108  55.3651   1.4887 0003706 228.7534  54.5796  1.86232590 25333
BEIDOU-3 M5 (C21)       
1 43207U 18018A   21273.80520607  .00000045  00000-0  00000-0 0  9996
2 43207  55.3694 120.5201 0005095 357.9294   2.1577  1.86231757 24704
BEIDOU-3 M6 (C22)       
1 43208U 18018B   21273.87193706  .00000046  00000-0  00000-0 0  9991
2 43208  55.3688 120.5228 0005865 311.1132  48.9253  1.86231750 24707
